{
  "type": "FeatureCollection",
  "features": [
    {
      "type": "Feature",
      "properties": {
        "norad_id": 66919,
        "name": "HULIANWANG DIGUI-109",
        "group": "last-30-days",
        "lat": -25.592329317315745,
        "lon": 44.13994161833053,
        "alt_km": 878.4015434412695,
        "timestamp": "2025-12-24T20:42:19.747300+00:00",
        "meta_object_name": "HULIANWANG DIGUI-109",
        "meta_object_id": "2025-285E",
        "meta_epoch": "2025-12-24T07:11:58.088832",
        "meta_mean_motion": 14.0372766,
        "meta_eccentricity": 0.00079196,
        "meta_inclination": 50.0076,
        "meta_ra_of_asc_node": 70.1376,
        "meta_arg_of_pericenter": 330.9385,
        "meta_mean_anomaly": 29.1077,
        "meta_ephemeris_type": 0,
        "meta_classification_type": "U",
        "meta_norad_cat_id": 66919,
        "meta_element_set_no": 999,
        "meta_rev_at_epoch": 253,
        "meta_bstar": 0.00012220835,
        "meta_mean_motion_dot": 4.2e-07,
        "meta_mean_motion_ddot": 0,
        "tle_line1": "1 66919U 25285E   25358.29997788  .00000042  00000+0  12221-3 0  9991",
        "tle_line2": "2 66919  50.0076  70.1376 0007919 330.9385  29.1077 14.03727660  2534"
      },
      "geometry": {
        "type": "Point",
        "coordinates": [
          44.13994161833053,
          -25.592329317315745
        ]
      }
    },
    {
      "type": "Feature",
      "properties": {
        "norad_id": 66920,
        "name": "HULIANWANG DIGUI-110",
        "group": "last-30-days",
        "lat": -22.958774619573653,
        "lon": 47.019613825438086,
        "alt_km": 879.9609839424256,
        "timestamp": "2025-12-24T20:42:19.747315+00:00",
        "meta_object_name": "HULIANWANG DIGUI-110",
        "meta_object_id": "2025-285F",
        "meta_epoch": "2025-12-24T07:10:53.337216",
        "meta_mean_motion": 14.03683845,
        "meta_eccentricity": 0.00056311,
        "meta_inclination": 50.012,
        "meta_ra_of_asc_node": 70.1408,
        "meta_arg_of_pericenter": 328.0297,
        "meta_mean_anomaly": 32.0265,
        "meta_ephemeris_type": 0,
        "meta_classification_type": "U",
        "meta_norad_cat_id": 66920,
        "meta_element_set_no": 999,
        "meta_rev_at_epoch": 253,
        "meta_bstar": 0.00011242826,
        "meta_mean_motion_dot": 2.6e-07,
        "meta_mean_motion_ddot": 0,
        "tle_line1": "1 66920U 25285F   25358.29922844  .00000026  00000+0  11243-3 0  9999",
        "tle_line2": "2 66920  50.0120  70.1408 0005631 328.0297  32.0265 14.03683845  2539"
      },
      "geometry": {
        "type": "Point",
        "coordinates": [
          47.019613825438086,
          -22.958774619573653
        ]
      }
    },
    {
      "type": "Feature",
      "properties": {
        "norad_id": 66921,
        "name": "HULIANWANG DIGUI-111",
        "group": "last-30-days",
        "lat": -20.26438568739156,
        "lon": 49.79188112109671,
        "alt_km": 879.1206646343517,
        "timestamp": "2025-12-24T20:42:19.747325+00:00",
        "meta_object_name": "HULIANWANG DIGUI-111",
        "meta_object_id": "2025-285G",
        "meta_epoch": "2025-12-24T07:09:47.756160",
        "meta_mean_motion": 14.03633407,
        "meta_eccentricity": 0.00067129,
        "meta_inclination": 50.0124,
        "meta_ra_of_asc_node": 70.1403,
        "meta_arg_of_pericenter": 331.8355,
        "meta_mean_anomaly": 28.2185,
        "meta_ephemeris_type": 0,
        "meta_classification_type": "U",
        "meta_norad_cat_id": 66921,
        "meta_element_set_no": 999,
        "meta_rev_at_epoch": 253,
        "meta_bstar": 0.00011603744,
        "meta_mean_motion_dot": 3.2e-07,
        "meta_mean_motion_ddot": 0,
        "tle_line1": "1 66921U 25285G   25358.29846940  .00000032  00000+0  11604-3 0  9990",
        "tle_line2": "2 66921  50.0124  70.1403 0006712 331.8355  28.2185 14.03633407  2534"
      },
      "geometry": {
        "type": "Point",
        "coordinates": [
          49.79188112109671,
          -20.26438568739156
        ]
      }
    },
    {
      "type": "Feature",
      "properties": {
        "norad_id": 66922,
        "name": "HULIANWANG DIGUI-112",
        "group": "last-30-days",
        "lat": -16.157116655673754,
        "lon": 53.75049681941823,
        "alt_km": 878.7907932320159,
        "timestamp": "2025-12-24T20:42:19.747335+00:00",
        "meta_object_name": "HULIANWANG DIGUI-112",
        "meta_object_id": "2025-285H",
        "meta_epoch": "2025-12-24T07:08:13.538688",
        "meta_mean_motion": 14.0366342,
        "meta_eccentricity": 0.00065301,
        "meta_inclination": 50.0097,
        "meta_ra_of_asc_node": 70.1266,
        "meta_arg_of_pericenter": 342.4587,
        "meta_mean_anomaly": 17.6091,
        "meta_ephemeris_type": 0,
        "meta_classification_type": "U",
        "meta_norad_cat_id": 66922,
        "meta_element_set_no": 999,
        "meta_rev_at_epoch": 253,
        "meta_bstar": 0.00012284293,
        "meta_mean_motion_dot": 4.3e-07,
        "meta_mean_motion_ddot": 0,
        "tle_line1": "1 66922U 25285H   25358.29737892  .00000043  00000+0  12284-3 0  9993",
        "tle_line2": "2 66922  50.0097  70.1266 0006530 342.4587  17.6091 14.03663420  2530"
      },
      "geometry": {
        "type": "Point",
        "coordinates": [
          53.75049681941823,
          -16.157116655673754
        ]
      }
    },
    {
      "type": "Feature",
      "properties": {
        "norad_id": 66923,
        "name": "HULIANWANG DIGUI-113",
        "group": "last-30-days",
        "lat": -11.475665929374067,
        "lon": 58.00347657158019,
        "alt_km": 879.1943629623711,
        "timestamp": "2025-12-24T20:42:19.747347+00:00",
        "meta_object_name": "HULIANWANG DIGUI-113",
        "meta_object_id": "2025-285J",
        "meta_epoch": "2025-12-24T07:06:28.283616",
        "meta_mean_motion": 14.03701338,
        "meta_eccentricity": 0.00051334,
        "meta_inclination": 50.0096,
        "meta_ra_of_asc_node": 70.1218,
        "meta_arg_of_pericenter": 337.0031,
        "meta_mean_anomaly": 23.0643,
        "meta_ephemeris_type": 0,
        "meta_classification_type": "U",
        "meta_norad_cat_id": 66923,
        "meta_element_set_no": 999,
        "meta_rev_at_epoch": 253,
        "meta_bstar": 0.00011954108,
        "meta_mean_motion_dot": 3.8e-07,
        "meta_mean_motion_ddot": 0,
        "tle_line1": "1 66923U 25285J   25358.29616069  .00000038  00000+0  11954-3 0  9993",
        "tle_line2": "2 66923  50.0096  70.1218 0005133 337.0031  23.0643 14.03701338  2534"
      },
      "geometry": {
        "type": "Point",
        "coordinates": [
          58.00347657158019,
          -11.475665929374067
        ]
      }
    },
    {
      "type": "Feature",
      "properties": {
        "norad_id": 66924,
        "name": "CZ-8A R/B",
        "group": "last-30-days",
        "lat": -42.09888032801103,
        "lon": -66.12542861314975,
        "alt_km": 795.5043159460274,
        "timestamp": "2025-12-24T20:42:19.747357+00:00",
        "meta_object_name": "CZ-8A R/B",
        "meta_object_id": "2025-285K",
        "meta_epoch": "2025-12-24T04:30:14.442624",
        "meta_mean_motion": 14.30506161,
        "meta_eccentricity": 0.0119247,
        "meta_inclination": 50.0084,
        "meta_ra_of_asc_node": 67.4242,
        "meta_arg_of_pericenter": 147.101,
        "meta_mean_anomaly": 213.74,
        "meta_ephemeris_type": 0,
        "meta_classification_type": "U",
        "meta_norad_cat_id": 66924,
        "meta_element_set_no": 999,
        "meta_rev_at_epoch": 256,
        "meta_bstar": 5.8886571e-05,
        "meta_mean_motion_dot": 1e-08,
        "meta_mean_motion_ddot": 0,
        "tle_line1": "1 66924U 25285K   25358.18766716  .00000001  00000+0  58887-4 0  9994",
        "tle_line2": "2 66924  50.0084  67.4242 0119247 147.1010 213.7400 14.30506161  2566"
      },
      "geometry": {
        "type": "Point",
        "coordinates": [
          -66.12542861314975,
          -42.09888032801103
        ]
      }
    },
    {
      "type": "Feature",
      "properties": {
        "norad_id": 66925,
        "name": "STARLINK-35945",
        "group": "last-30-days",
        "lat": 50.30143013047302,
        "lon": 54.47603081300958,
        "alt_km": 367.0198842319951,
        "timestamp": "2025-12-24T20:42:19.747367+00:00",
        "meta_object_name": "STARLINK-35945",
        "meta_object_id": "2025-286A",
        "meta_epoch": "2025-12-24T06:00:02.000160",
        "meta_mean_motion": 15.67070508,
        "meta_eccentricity": 0.00014246,
        "meta_inclination": 53.1596,
        "meta_ra_of_asc_node": 352.9094,
        "meta_arg_of_pericenter": 87.9776,
        "meta_mean_anomaly": 130.492,
        "meta_ephemeris_type": 0,
        "meta_classification_type": "U",
        "meta_norad_cat_id": 66925,
        "meta_element_set_no": 999,
        "meta_rev_at_epoch": 384,
        "meta_bstar": -0.020462017,
        "meta_mean_motion_dot": -0.01964505,
        "meta_mean_motion_ddot": 0,
        "tle_line1": "1 66925U 25286A   25358.25002315 -.01964505  00000+0 -20462-1 0  9998",
        "tle_line2": "2 66925  53.1596 352.9094 0001424  87.9776 130.4920 15.67070508  3849"
      },
      "geometry": {
        "type": "Point",
        "coordinates": [
          54.47603081300958,
          50.30143013047302
        ]
      }
    }
  ]
}